[{"OBJECT_NAME":"GMS-T","OBJECT_ID":"2021-004A","EPOCH":"2026-03-09T21:58:54.862464","MEAN_MOTION":13.16656588,"ECCENTRICITY":0.00016531,"INCLINATION":90.1169,"RA_OF_ASC_NODE":240.6396,"ARG_OF_PERICENTER":357.5234,"MEAN_ANOMALY":2.5889,"EPHEMERIS_TYPE":0,"CLASSIFICATION_TYPE":"U","NORAD_CAT_ID":47346,"ELEMENT_SET_NO":999,"REV_AT_EPOCH":24653,"BSTAR":0.00013651536,"MEAN_MOTION_DOT":6.0e-7,"MEAN_MOTION_DDOT":0},{"OBJECT_NAME":"COSMOS 2499 (RS47)","OBJECT_ID":"2014-028E","EPOCH":"2026-03-09T23:59:39.377184","MEAN_MOTION":12.82900854,"ECCENTRICITY":0.02305914,"INCLINATION":82.4519,"RA_OF_ASC_NODE":319.3749,"ARG_OF_PERICENTER":234.405,"MEAN_ANOMALY":123.5373,"EPHEMERIS_TYPE":0,"CLASSIFICATION_TYPE":"U","NORAD_CAT_ID":39765,"ELEMENT_SET_NO":999,"REV_AT_EPOCH":55230,"BSTAR":4.6935667e-5,"MEAN_MOTION_DOT":2.2e-7,"MEAN_MOTION_DDOT":0}]
